{
"type": "FeatureCollection",
"name": "man_hyde_1186_final",
"crs": { "type": "name", "properties": { "name": "urn:ogc:def:crs:OGC:1.3:CRS84" } },
"features": [
{ "type": "Feature", "properties": { "unit_name": "Hyde", "unit_id": "a", "prefix": "a", "county": null, "type": "b", "start": "a", "end": "a", "moiety": "a", "lord_name": "a", "lord_id": "a", "overlord_name": "a", "overlord_id": "a" }, "geometry": { "type": "MultiPolygon", "coordinates": [ [ [ [ -2.211073, 50.71352 ], [ -2.20723, 50.716689 ], [ -2.202989, 50.719424 ], [ -2.205774, 50.721378 ], [ -2.20582, 50.721658 ], [ -2.205601, 50.721966 ], [ -2.205735, 50.722498 ], [ -2.205252, 50.722799 ], [ -2.204348, 50.722745 ], [ -2.20419, 50.722004 ], [ -2.203408, 50.721949 ], [ -2.203879, 50.721277 ], [ -2.203284, 50.721355 ], [ -2.202912, 50.722048 ], [ -2.200771, 50.721184 ], [ -2.200623, 50.720051 ], [ -2.199763, 50.720046 ], [ -2.199067, 50.719571 ], [ -2.198845, 50.719152 ], [ -2.196822, 50.720274 ], [ -2.195549, 50.721592 ], [ -2.195285, 50.72162 ], [ -2.194046, 50.72044 ], [ -2.192946, 50.715573 ], [ -2.192568, 50.714734 ], [ -2.191179, 50.71468 ], [ -2.189458, 50.719538 ], [ -2.186357, 50.726699 ], [ -2.184774, 50.726893 ], [ -2.182828, 50.726936 ], [ -2.181295, 50.726129 ], [ -2.179412, 50.725747 ], [ -2.177912, 50.725304 ], [ -2.17673, 50.724497 ], [ -2.175134, 50.724094 ], [ -2.172519, 50.725313 ], [ -2.169934, 50.72558 ], [ -2.168307, 50.725177 ], [ -2.165882, 50.725667 ], [ -2.162116, 50.724599 ], [ -2.160743, 50.724217 ], [ -2.160072, 50.723064 ], [ -2.158668, 50.723045 ], [ -2.158032, 50.722039 ], [ -2.166224, 50.711786 ], [ -2.167435, 50.710448 ], [ -2.169754, 50.7081 ], [ -2.170439, 50.707492 ], [ -2.171171, 50.706479 ], [ -2.174226, 50.702156 ], [ -2.173984, 50.701065 ], [ -2.174935, 50.70125 ], [ -2.175605, 50.701795 ], [ -2.176051, 50.701086 ], [ -2.177358, 50.700416 ], [ -2.177899, 50.699687 ], [ -2.178789, 50.696872 ], [ -2.179108, 50.696729 ], [ -2.18201, 50.69713 ], [ -2.184244, 50.698401 ], [ -2.186765, 50.699288 ], [ -2.189222, 50.700154 ], [ -2.191675, 50.698369 ], [ -2.193397, 50.698488 ], [ -2.19493, 50.699295 ], [ -2.196397, 50.699818 ], [ -2.200228, 50.702322 ], [ -2.20106, 50.704081 ], [ -2.203964, 50.704623 ], [ -2.205848, 50.705672 ], [ -2.209688, 50.708566 ], [ -2.210455, 50.708939 ], [ -2.213911, 50.711034 ], [ -2.211073, 50.71352 ] ] ] ] } },
{ "type": "Feature", "properties": { "unit_name": "Hyde", "unit_id": "Manor of", "prefix": "hyde", "county": "dorset", "type": "seigneurial", "start": "1186", "end": "1538", "moiety": "1", "lord_name": null, "lord_id": null, "overlord_name": "Abbey of Tarrant", "overlord_id": "aby_trnt" }, "geometry": { "type": "MultiPolygon", "coordinates": [ ] } },
{ "type": "Feature", "properties": { "unit_name": "Hyde", "unit_id": "Manor of", "prefix": "hyde", "county": "dorset", "type": "seigneurial", "start": "1539", "end": "1548", "moiety": "1", "lord_name": "Thomas Trenchard (d. ~1549)", "lord_id": "trenchard_thomas_1549", "overlord_name": null, "overlord_id": null }, "geometry": { "type": "MultiPolygon", "coordinates": [ ] } },
{ "type": "Feature", "properties": { "unit_name": "Hyde", "unit_id": "Manor of", "prefix": "hyde", "county": "dorset", "type": "seigneurial", "start": "1549", "end": "1602", "moiety": "1", "lord_name": "Thomas Trenchard (d. ~1603)", "lord_id": "trenchard_thomas_1603", "overlord_name": null, "overlord_id": null }, "geometry": { "type": "MultiPolygon", "coordinates": [ ] } },
{ "type": "Feature", "properties": { "unit_name": "Hyde", "unit_id": "Manor of", "prefix": "hyde", "county": "dorset", "type": "seigneurial", "start": "1603", "end": "1633", "moiety": "1", "lord_name": "John Ryves", "lord_id": "ryves_john", "overlord_name": null, "overlord_id": null }, "geometry": { "type": "MultiPolygon", "coordinates": [ ] } },
{ "type": "Feature", "properties": { "unit_name": "Hyde", "unit_id": "Manor of", "prefix": "hyde", "county": "dorset", "type": "seigneurial", "start": "1634", "end": "1665", "moiety": "1", "lord_name": "George Ryves (d. 1666)", "lord_id": "ryves_george_1666", "overlord_name": null, "overlord_id": null }, "geometry": { "type": "MultiPolygon", "coordinates": [ ] } },
{ "type": "Feature", "properties": { "unit_name": "Hyde", "unit_id": "Manor of", "prefix": "hyde", "county": "dorset", "type": "seigneurial", "start": "1666", "end": "1688", "moiety": "1", "lord_name": "George Ryves (d. 1689)", "lord_id": "ryves_george_1689", "overlord_name": null, "overlord_id": null }, "geometry": { "type": "MultiPolygon", "coordinates": [ ] } },
{ "type": "Feature", "properties": { "unit_name": "Hyde", "unit_id": "Manor of", "prefix": "hyde", "county": "dorset", "type": "seigneurial", "start": "1689", "end": "1691", "moiety": "1", "lord_name": "Charles Ryves", "lord_id": "ryves_charles", "overlord_name": null, "overlord_id": null }, "geometry": { "type": "MultiPolygon", "coordinates": [ ] } },
{ "type": "Feature", "properties": { "unit_name": "Hyde", "unit_id": "Manor of", "prefix": "hyde", "county": "dorset", "type": "seigneurial", "start": "1692", "end": "1703", "moiety": "1", "lord_name": "Thomas Ryves (d. 1704)", "lord_id": "ryves_thomas_1704", "overlord_name": null, "overlord_id": null }, "geometry": { "type": "MultiPolygon", "coordinates": [ ] } },
{ "type": "Feature", "properties": { "unit_name": "Hyde", "unit_id": "Manor of", "prefix": "hyde", "county": "dorset", "type": "seigneurial", "start": "1704", "end": "1728", "moiety": "1", "lord_name": "George Ryves (d. 1729)", "lord_id": "ryves_george_1729", "overlord_name": null, "overlord_id": null }, "geometry": { "type": "MultiPolygon", "coordinates": [ ] } },
{ "type": "Feature", "properties": { "unit_name": "Hyde", "unit_id": "Manor of", "prefix": "hyde", "county": "dorset", "type": "seigneurial", "start": "1729", "end": "1787", "moiety": "1", "lord_name": "Thomas Ryves (d. 1788)", "lord_id": "ryves_thomas_1788", "overlord_name": null, "overlord_id": null }, "geometry": { "type": "MultiPolygon", "coordinates": [ ] } },
{ "type": "Feature", "properties": { "unit_name": "Hyde", "unit_id": "Manor of", "prefix": "hyde", "county": "dorset", "type": "seigneurial", "start": "1788", "end": "1836", "moiety": "1", "lord_name": "William Gaisford Peach", "lord_id": "peach_williamgaisford", "overlord_name": null, "overlord_id": null }, "geometry": { "type": "MultiPolygon", "coordinates": [ ] } },
{ "type": "Feature", "properties": { "unit_name": "Hyde", "unit_id": "Manor of", "prefix": "hyde", "county": "dorset", "type": "seigneurial", "start": "1837", "end": "1881", "moiety": "1", "lord_name": "Charles James Radclyffe (d. 1882)", "lord_id": "radclyffe_charlesjames_1882", "overlord_name": null, "overlord_id": null }, "geometry": { "type": "MultiPolygon", "coordinates": [ ] } },
{ "type": "Feature", "properties": { "unit_name": "Hyde", "unit_id": "Manor of", "prefix": "hyde", "county": "dorset", "type": "seigneurial", "start": "1882", "end": "1912", "moiety": "1", "lord_name": "Charles James Radclyffe (d. 1913)", "lord_id": "radclyffe_charlesjames_1913", "overlord_name": null, "overlord_id": null }, "geometry": { "type": "MultiPolygon", "coordinates": [ ] } },
{ "type": "Feature", "properties": { "unit_name": "Hyde", "unit_id": "Manor of", "prefix": "hyde", "county": "dorset", "type": "seigneurial", "start": "1913", "end": "1920", "moiety": "1", "lord_name": "Maj. Charles Robert Radclyffe", "lord_id": "radclyffe_charlesrobert", "overlord_name": null, "overlord_id": null }, "geometry": { "type": "MultiPolygon", "coordinates": [ ] } }
]
}
