{
"type": "FeatureCollection",
"name": "man_mlbs_1149_final",
"crs": { "type": "name", "properties": { "name": "urn:ogc:def:crs:OGC:1.3:CRS84" } },
"features": [
{ "type": "Feature", "properties": { "unit_name": null, "prefix": null, "unit_id": "man_mlbs", "county": null, "type": null, "start": null, "end": null, "moiety": null, "lord_name": null, "lord_id": null, "overlord_name": null, "overlord_id": null }, "geometry": { "type": "MultiPolygon", "coordinates": [ [ [ [ -2.24857, 50.77798 ], [ -2.25068, 50.77753 ], [ -2.25362, 50.77819 ], [ -2.25652, 50.77797 ], [ -2.25782, 50.77426 ], [ -2.25728, 50.77369 ], [ -2.25766, 50.77244 ], [ -2.25724, 50.7711 ], [ -2.25928, 50.77005 ], [ -2.2618, 50.76913 ], [ -2.26403, 50.76777 ], [ -2.26639, 50.76695 ], [ -2.26671, 50.76651 ], [ -2.26722, 50.7659 ], [ -2.26607, 50.7657 ], [ -2.26508, 50.76558 ], [ -2.26428, 50.76505 ], [ -2.26386, 50.76449 ], [ -2.26405, 50.76368 ], [ -2.26539, 50.76295 ], [ -2.26654, 50.76264 ], [ -2.26699, 50.76209 ], [ -2.26407, 50.75959 ], [ -2.26503, 50.75931 ], [ -2.26514, 50.76 ], [ -2.26871, 50.76081 ], [ -2.27027, 50.76142 ], [ -2.27066, 50.76178 ], [ -2.27072, 50.76255 ], [ -2.27175, 50.76257 ], [ -2.27277, 50.76265 ], [ -2.27347, 50.76236 ], [ -2.27465, 50.76252 ], [ -2.27516, 50.76201 ], [ -2.27638, 50.76223 ], [ -2.27695, 50.76231 ], [ -2.27826, 50.76298 ], [ -2.27878, 50.76395 ], [ -2.27958, 50.7648 ], [ -2.28064, 50.76655 ], [ -2.28077, 50.76793 ], [ -2.2809, 50.76941 ], [ -2.27928, 50.77014 ], [ -2.28104, 50.77105 ], [ -2.28075, 50.77188 ], [ -2.2799, 50.77479 ], [ -2.28102, 50.77554 ], [ -2.28064, 50.77621 ], [ -2.28083, 50.77712 ], [ -2.27991, 50.77815 ], [ -2.28058, 50.77925 ], [ -2.27985, 50.78034 ], [ -2.27931, 50.7815 ], [ -2.27858, 50.78263 ], [ -2.2775, 50.7836 ], [ -2.27251, 50.78258 ], [ -2.26948, 50.78368 ], [ -2.26453, 50.78364 ], [ -2.26021, 50.7834 ], [ -2.25598, 50.78345 ], [ -2.2513, 50.7839 ], [ -2.25021, 50.78118 ], [ -2.24857, 50.77798 ] ] ] ] } },
{ "type": "Feature", "properties": { "unit_name": "Milborne Stileham", "prefix": "Manor of", "unit_id": "man_mlbs", "county": "dorset", "type": "seigneurial", "start": "1066", "end": "1085", "moiety": "1", "lord_name": "Doda (monk)", "lord_id": "dodamonk", "overlord_name": null, "overlord_id": null }, "geometry": { "type": "MultiPolygon", "coordinates": [ ] } },
{ "type": "Feature", "properties": { "unit_name": "Milborne Stileham", "prefix": "Manor of", "unit_id": "man_mlbs", "county": "dorset", "type": "seigneurial", "start": "1086", "end": "1099", "moiety": "1", "lord_name": "Odo, son of Everbold", "lord_id": "odoeverbold", "overlord_name": null, "overlord_id": null }, "geometry": { "type": "MultiPolygon", "coordinates": [ ] } },
{ "type": "Feature", "properties": { "unit_name": "Milborne Stileham", "prefix": "Manor of", "unit_id": "man_mlbs", "county": "dorset", "type": "seigneurial", "start": "1100", "end": "1148", "moiety": "1", "lord_name": "[Unknown]", "lord_id": "unknown", "overlord_name": null, "overlord_id": null }, "geometry": { "type": "MultiPolygon", "coordinates": [ ] } },
{ "type": "Feature", "properties": { "unit_name": "Milborne Stileham", "prefix": "Manor of", "unit_id": "man_mlbs", "county": "dorset", "type": "seigneurial", "start": "1149", "end": "1387", "moiety": "1", "lord_name": "[None]", "lord_id": "none", "overlord_name": "Priory of Okeburn", "overlord_id": "pry_okb" }, "geometry": { "type": "MultiPolygon", "coordinates": [ ] } },
{ "type": "Feature", "properties": { "unit_name": "Milborne Stileham", "prefix": "Manor of", "unit_id": "man_mlbs", "county": "dorset", "type": "seigneurial", "start": "1388", "end": "1538", "moiety": "1/2", "lord_name": "[None]", "lord_id": "none", "overlord_name": "Priory of Okeburn", "overlord_id": "pry_okb" }, "geometry": { "type": "MultiPolygon", "coordinates": [ ] } },
{ "type": "Feature", "properties": { "unit_name": "Milborne Stileham", "prefix": "Manor of", "unit_id": "man_mlbs", "county": "dorset", "type": "seigneurial", "start": "1539", "end": "1546", "moiety": "1/2", "lord_name": "[None]", "lord_id": "none", "overlord_name": "[Royal]", "overlord_id": "royal" }, "geometry": { "type": "MultiPolygon", "coordinates": [ ] } },
{ "type": "Feature", "properties": { "unit_name": "Milborne Stileham", "prefix": "Manor of", "unit_id": "man_mlbs", "county": "dorset", "type": "seigneurial", "start": "1547", "end": "1548", "moiety": "1/2", "lord_name": "[None]", "lord_id": "none", "overlord_name": "Duchy of Somerset", "overlord_id": "duc_smrt" }, "geometry": { "type": "MultiPolygon", "coordinates": [ ] } },
{ "type": "Feature", "properties": { "unit_name": "Milborne Stileham", "prefix": "Manor of", "unit_id": "man_mlbs", "county": "dorset", "type": "seigneurial", "start": "1388", "end": "1429", "moiety": "2/2", "lord_name": "Bartholomew Turbervill", "lord_id": "turbervill_bartholomew", "overlord_name": "Honour of Wigmore", "overlord_id": "hon_wgmr" }, "geometry": { "type": "MultiPolygon", "coordinates": [ ] } },
{ "type": "Feature", "properties": { "unit_name": "Milborne Stileham", "prefix": "Manor of", "unit_id": "man_mlbs", "county": "dorset", "type": "seigneurial", "start": "1430", "end": "1439", "moiety": "2/2", "lord_name": "Richard Morton", "lord_id": "morton_richard", "overlord_name": "Honour of Wigmore", "overlord_id": "hon_wgmr" }, "geometry": { "type": "MultiPolygon", "coordinates": [ ] } },
{ "type": "Feature", "properties": { "unit_name": "Milborne Stileham", "prefix": "Manor of", "unit_id": "man_mlbs", "county": "dorset", "type": "seigneurial", "start": "1440", "end": "1499", "moiety": "2/2", "lord_name": "John Morton", "lord_id": "morton_john_1500", "overlord_name": "Honour of Wigmore", "overlord_id": "hon_wgmr" }, "geometry": { "type": "MultiPolygon", "coordinates": [ ] } },
{ "type": "Feature", "properties": { "unit_name": "Milborne Stileham", "prefix": "Manor of", "unit_id": "man_mlbs", "county": "dorset", "type": "seigneurial", "start": "1500", "end": "1539", "moiety": "2/2", "lord_name": "John Morton", "lord_id": "morton_john_1540", "overlord_name": "Honour of Wigmore", "overlord_id": "hon_wgmr" }, "geometry": { "type": "MultiPolygon", "coordinates": [ ] } },
{ "type": "Feature", "properties": { "unit_name": "Milborne Stileham", "prefix": "Manor of", "unit_id": "man_mlbs", "county": "dorset", "type": "seigneurial", "start": "1540", "end": "1546", "moiety": "2/2", "lord_name": "Thomas Morton", "lord_id": "morton_thomas", "overlord_name": "Honour of Wigmore", "overlord_id": "hon_wgmr" }, "geometry": { "type": "MultiPolygon", "coordinates": [ ] } },
{ "type": "Feature", "properties": { "unit_name": "Milborne Stileham", "prefix": "Manor of", "unit_id": "man_mlbs", "county": "dorset", "type": "seigneurial", "start": "1547", "end": "1548", "moiety": "2/2", "lord_name": "Thomas Morton", "lord_id": "morton_thomas", "overlord_name": "[None]", "overlord_id": "none" }, "geometry": { "type": "MultiPolygon", "coordinates": [ ] } },
{ "type": "Feature", "properties": { "unit_name": "Milborne Stileham", "prefix": "Manor of", "unit_id": "man_mlbs", "county": "dorset", "type": "seigneurial", "start": "1549", "end": "1559", "moiety": "1", "lord_name": "Thomas Morton", "lord_id": "morton_thomas", "overlord_name": "[None]", "overlord_id": "none" }, "geometry": { "type": "MultiPolygon", "coordinates": [ ] } },
{ "type": "Feature", "properties": { "unit_name": "Milborne Stileham", "prefix": "Manor of", "unit_id": "man_mlbs", "county": "dorset", "type": "seigneurial", "start": "1560", "end": "1606", "moiety": "1", "lord_name": "George Morton (d. 1607)", "lord_id": "morton_george_1607", "overlord_name": "[None]", "overlord_id": "none" }, "geometry": { "type": "MultiPolygon", "coordinates": [ ] } },
{ "type": "Feature", "properties": { "unit_name": "Milborne Stileham", "prefix": "Manor of", "unit_id": "man_mlbs", "county": "dorset", "type": "seigneurial", "start": "1607", "end": "1610", "moiety": "1", "lord_name": "George Morton (d. 1611)", "lord_id": "morton_george_1611", "overlord_name": "[None]", "overlord_id": "none" }, "geometry": { "type": "MultiPolygon", "coordinates": [ ] } },
{ "type": "Feature", "properties": { "unit_name": "Milborne Stileham", "prefix": "Manor of", "unit_id": "man_mlbs", "county": "dorset", "type": "seigneurial", "start": "1611", "end": "1661", "moiety": "1", "lord_name": "George Morton (d. 1662)", "lord_id": "morton_george_1662", "overlord_name": "[None]", "overlord_id": "none" }, "geometry": { "type": "MultiPolygon", "coordinates": [ ] } },
{ "type": "Feature", "properties": { "unit_name": "Milborne Stileham", "prefix": "Manor of", "unit_id": "man_mlbs", "county": "dorset", "type": "seigneurial", "start": "1662", "end": "1698", "moiety": "1", "lord_name": "John Morton", "lord_id": "morton_john", "overlord_name": "[None]", "overlord_id": "none" }, "geometry": { "type": "MultiPolygon", "coordinates": [ ] } },
{ "type": "Feature", "properties": { "unit_name": "Milborne Stileham", "prefix": "Manor of", "unit_id": "man_mlbs", "county": "dorset", "type": "seigneurial", "start": "1699", "end": "1725", "moiety": "1", "lord_name": "Edmund Morton-Pleydell (d. 1726)", "lord_id": "morton-pleydell_edmund_1726", "overlord_name": "[None]", "overlord_id": "none" }, "geometry": { "type": "MultiPolygon", "coordinates": [ ] } },
{ "type": "Feature", "properties": { "unit_name": "Milborne Stileham", "prefix": "Manor of", "unit_id": "man_mlbs", "county": "dorset", "type": "seigneurial", "start": "1726", "end": "1753", "moiety": "1", "lord_name": "Edmund Morton-Pleydell (d. 1754)", "lord_id": "morton-pleydell_edmund_1754", "overlord_name": "[None]", "overlord_id": "none" }, "geometry": { "type": "MultiPolygon", "coordinates": [ ] } },
{ "type": "Feature", "properties": { "unit_name": "Milborne Stileham", "prefix": "Manor of", "unit_id": "man_mlbs", "county": "dorset", "type": "seigneurial", "start": "1754", "end": "1793", "moiety": "1", "lord_name": "Edmund Morton-Pleydell (d. 1794)", "lord_id": "morton-pleydell_edmund_1794", "overlord_name": "[None]", "overlord_id": "none" }, "geometry": { "type": "MultiPolygon", "coordinates": [ ] } },
{ "type": "Feature", "properties": { "unit_name": "Milborne Stileham", "prefix": "Manor of", "unit_id": "man_mlbs", "county": "dorset", "type": "seigneurial", "start": "1794", "end": "1834", "moiety": "1", "lord_name": "Edmund Morton-Pleydell (d. 1835)", "lord_id": "morton-pleydell_edmund_1835", "overlord_name": "[None]", "overlord_id": "none" }, "geometry": { "type": "MultiPolygon", "coordinates": [ ] } },
{ "type": "Feature", "properties": { "unit_name": "Milborne Stileham", "prefix": "Manor of", "unit_id": "man_mlbs", "county": "dorset", "type": "seigneurial", "start": "1835", "end": "1920", "moiety": "1", "lord_name": "John Clavell Mansel-Pleydell", "lord_id": "mansel-pleydell_johnclavell", "overlord_name": "[None]", "overlord_id": "none" }, "geometry": { "type": "MultiPolygon", "coordinates": [ ] } }
]
}
