{
"type": "FeatureCollection",
"name": "man_shtr_1400_final",
"crs": { "type": "name", "properties": { "name": "urn:ogc:def:crs:EPSG::27700" } },
"features": [
{ "type": "Feature", "properties": { "unit_name": null, "prefix": null, "unit_id": null, "county": null, "type": null, "start": null, "end": null, "moiety": null, "lord_name": null, "lord_id": null, "overlord_name": null, "overlord_id": null }, "geometry": { "type": "MultiPolygon", "coordinates": [ [ [ [ 384121.78125, 90727.757812 ], [ 383858.28125, 90810.640625 ], [ 383616.90625, 90815.554687 ], [ 383340.0625, 90923.578125 ], [ 383365.84375, 91240.914063 ], [ 383551.0, 91513.28125 ], [ 383668.625, 91814.890625 ], [ 383838.03125, 92093.992187 ], [ 384081.96875, 92483.390625 ], [ 384206.0625, 92618.4375 ], [ 384213.0, 92721.976562 ], [ 384120.53125, 92645.445312 ], [ 384086.90625, 92735.476563 ], [ 384001.25, 92708.460937 ], [ 383956.28125, 92748.976562 ], [ 383909.0, 92757.976562 ], [ 383909.09375, 92812.0 ], [ 383934.0, 92886.28125 ], [ 383940.875, 92956.054687 ], [ 383936.5, 93032.578125 ], [ 384084.03125, 93707.828125 ], [ 383962.71875, 93881.132812 ], [ 383739.96875, 94022.929688 ], [ 383749.3125, 94216.492188 ], [ 383625.71875, 94385.304688 ], [ 383448.0625, 94551.859375 ], [ 383356.0, 94725.171875 ], [ 383254.71875, 94761.179687 ], [ 383061.0625, 94792.671875 ], [ 383090.59375, 94941.234375 ], [ 383081.625, 94959.234375 ], [ 383118.4375, 94994.460938 ], [ 383090.78125, 95038.015625 ], [ 383093.21875, 95148.3125 ], [ 383025.625, 95134.804687 ], [ 382939.96875, 95103.28125 ], [ 383020.78125, 94950.234375 ], [ 382901.1875, 94801.679687 ], [ 382725.625, 94878.203125 ], [ 382576.90625, 94842.171875 ], [ 382511.90625, 95031.242188 ], [ 382543.4375, 95035.75 ], [ 382540.8125, 95084.835937 ], [ 382581.84375, 95098.765625 ], [ 382870.53125, 95328.367187 ], [ 383199.5625, 95436.40625 ], [ 383264.96875, 95488.179688 ], [ 383370.9375, 95562.460937 ], [ 383458.75, 95539.960937 ], [ 383481.21875, 95501.695312 ], [ 383663.75, 95557.976563 ], [ 383834.875, 95521.96875 ], [ 383983.34375, 95409.429687 ], [ 384138.46875, 95249.632812 ], [ 384244.0, 95053.8125 ], [ 384338.25, 94853.5 ], [ 384507.0625, 94772.476562 ], [ 384662.3125, 94680.195313 ], [ 384808.625, 94626.179687 ], [ 384787.875, 94340.335937 ], [ 384611.78125, 94115.242187 ], [ 384638.3125, 93827.132812 ], [ 384590.625, 93590.804687 ], [ 384538.15625, 93205.921875 ], [ 384690.34375, 92636.46875 ], [ 384615.28125, 92202.0625 ], [ 384524.875, 92003.984375 ], [ 384551.625, 91839.679687 ], [ 384479.25, 91661.867187 ], [ 384350.34375, 91357.992187 ], [ 384311.46875, 91027.125 ], [ 384121.78125, 90727.757812 ] ] ] ] } },
{ "type": "Feature", "properties": { "unit_name": "Shitterton", "prefix": "Manor of", "unit_id": "man_shtr", "county": "dorset", "type": "seigneurial", "start": "1400", "end": "1429", "moiety": "1", "lord_name": "Richard Cerne", "lord_id": "cerne_richard", "overlord_name": null, "overlord_id": null }, "geometry": { "type": "MultiPolygon", "coordinates": [ ] } },
{ "type": "Feature", "properties": { "unit_name": "Shitterton", "prefix": "Manor of", "unit_id": "man_shtr", "county": "dorset", "type": "seigneurial", "start": "1430", "end": "1454", "moiety": "1", "lord_name": "John Herring", "lord_id": "herring_john", "overlord_name": null, "overlord_id": null }, "geometry": { "type": "MultiPolygon", "coordinates": [ ] } },
{ "type": "Feature", "properties": { "unit_name": "Shitterton", "prefix": "Manor of", "unit_id": "man_shtr", "county": "dorset", "type": "seigneurial", "start": "1455", "end": "1589", "moiety": "1", "lord_name": "[Unknown]", "lord_id": "unknown", "overlord_name": null, "overlord_id": null }, "geometry": { "type": "MultiPolygon", "coordinates": [ ] } },
{ "type": "Feature", "properties": { "unit_name": "Shitterton", "prefix": "Manor of", "unit_id": "man_shtr", "county": "dorset", "type": "seigneurial", "start": "1590", "end": "1606", "moiety": "1", "lord_name": "George Morton (d. 1607)", "lord_id": "morton_george_1607", "overlord_name": null, "overlord_id": null }, "geometry": { "type": "MultiPolygon", "coordinates": [ ] } },
{ "type": "Feature", "properties": { "unit_name": "Shitterton", "prefix": "Manor of", "unit_id": "man_shtr", "county": "dorset", "type": "seigneurial", "start": "1607", "end": "1610", "moiety": "1", "lord_name": "George Morton (d. 1611)", "lord_id": "morton_george_1611", "overlord_name": null, "overlord_id": null }, "geometry": { "type": "MultiPolygon", "coordinates": [ ] } },
{ "type": "Feature", "properties": { "unit_name": "Shitterton", "prefix": "Manor of", "unit_id": "man_shtr", "county": "dorset", "type": "seigneurial", "start": "1611", "end": "1661", "moiety": "1", "lord_name": "George Morton (d. 1662)", "lord_id": "morton_george_1662", "overlord_name": null, "overlord_id": null }, "geometry": { "type": "MultiPolygon", "coordinates": [ ] } },
{ "type": "Feature", "properties": { "unit_name": "Shitterton", "prefix": "Manor of", "unit_id": "man_shtr", "county": "dorset", "type": "seigneurial", "start": "1662", "end": "1698", "moiety": "1", "lord_name": "John Morton", "lord_id": "morton_john", "overlord_name": null, "overlord_id": null }, "geometry": { "type": "MultiPolygon", "coordinates": [ ] } },
{ "type": "Feature", "properties": { "unit_name": "Shitterton", "prefix": "Manor of", "unit_id": "man_shtr", "county": "dorset", "type": "seigneurial", "start": "1699", "end": "1725", "moiety": "1", "lord_name": "Edmund Morton-Pleydell (d. 1726)", "lord_id": "morton-pleydell_edmund_1726", "overlord_name": null, "overlord_id": null }, "geometry": { "type": "MultiPolygon", "coordinates": [ ] } },
{ "type": "Feature", "properties": { "unit_name": "Shitterton", "prefix": "Manor of", "unit_id": "man_shtr", "county": "dorset", "type": "seigneurial", "start": "1726", "end": "1753", "moiety": "1", "lord_name": "Edmund Morton-Pleydell (d. 1754)", "lord_id": "morton-pleydell_edmund_1754", "overlord_name": null, "overlord_id": null }, "geometry": { "type": "MultiPolygon", "coordinates": [ ] } },
{ "type": "Feature", "properties": { "unit_name": "Shitterton", "prefix": "Manor of", "unit_id": "man_shtr", "county": "dorset", "type": "seigneurial", "start": "1754", "end": "1793", "moiety": "1", "lord_name": "Edmund Morton-Pleydell (d. 1794)", "lord_id": "morton-pleydell_edmund_1794", "overlord_name": null, "overlord_id": null }, "geometry": { "type": "MultiPolygon", "coordinates": [ ] } },
{ "type": "Feature", "properties": { "unit_name": "Shitterton", "prefix": "Manor of", "unit_id": "man_shtr", "county": "dorset", "type": "seigneurial", "start": "1794", "end": "1834", "moiety": "1", "lord_name": "Edmund Morton-Pleydell (d. 1835)", "lord_id": "morton-pleydell_edmund_1835", "overlord_name": null, "overlord_id": null }, "geometry": { "type": "MultiPolygon", "coordinates": [ ] } },
{ "type": "Feature", "properties": { "unit_name": "Shitterton", "prefix": "Manor of", "unit_id": "man_shtr", "county": "dorset", "type": "seigneurial", "start": "1835", "end": "1920", "moiety": "1", "lord_name": "John Clavell Mansel-Pleydell", "lord_id": "mansel-pleydell_johnclavell", "overlord_name": null, "overlord_id": null }, "geometry": { "type": "MultiPolygon", "coordinates": [ ] } }
]
}
